[
    {
        "Altitude(m)": 610399.5091695846,
        "Argument of Periapsis(deg)": 0.0,
        "Eccentricity": 0.0,
        "Inclination(deg)": 60.0,
        "Latitude(deg)": 52.11128068327365,
        "Longitude(deg)": -122.41562322617959,
        "Mean Anomaly(deg)": 65.45449999999998,
        "RAAN(deg)": 290.0,
        "Satellite Name": "Test1 1280",
        "Satellite Number": 1280,
        "Semi-Major Axis(m)": 6980739.136638005,
        "Time(s)": 0
    },
    {
        "Altitude(m)": 610481.6600476403,
        "Argument of Periapsis(deg)": 0.00010418945913296404,
        "Eccentricity": 0.0,
        "Inclination(deg)": 60.0,
        "Latitude(deg)": 52.47088218900159,
        "Longitude(deg)": -121.63348704650448,
        "Mean Anomaly(deg)": 66.07460614546183,
        "RAAN(deg)": 289.99957995086027,
        "Satellite Name": "Test1 1280",
        "Satellite Number": 1280,
        "Semi-Major Axis(m)": 6980739.136638005,
        "Time(s)": 10
    }
]